[
    {
        "Altitude(m)": 607886.6830470993,
        "Argument of Periapsis(deg)": 0.0,
        "Eccentricity": 0.0,
        "Inclination(deg)": 60.0,
        "Latitude(deg)": 40.99842089773809,
        "Longitude(deg)": -25.027131637913804,
        "Mean Anomaly(deg)": 49.09089999999999,
        "RAAN(deg)": 45.0,
        "Satellite Name": "Test1 201",
        "Satellite Number": 201,
        "Semi-Major Axis(m)": 6980739.136638005,
        "Time(s)": 0
    },
    {
        "Altitude(m)": 607987.5974902845,
        "Argument of Periapsis(deg)": 0.00010418945913296404,
        "Eccentricity": 0.0,
        "Inclination(deg)": 60.0,
        "Latitude(deg)": 41.46351211047326,
        "Longitude(deg)": -24.522905773389116,
        "Mean Anomaly(deg)": 49.71100614546182,
        "RAAN(deg)": 44.99957995086026,
        "Satellite Name": "Test1 201",
        "Satellite Number": 201,
        "Semi-Major Axis(m)": 6980739.136638005,
        "Time(s)": 10
    }
]